{
    "links": {
        "self": "http://www.neowsapp.com/rest/v1/neo/3627006?api_key=iIulBulltgU6a56xZRHN4H3l9WmuAYTsLGpBGhQ2"
    },
    "id": "3627006",
    "neo_reference_id": "3627006",
    "name": "(2013 CG129)",
    "designation": "2013 CG129",
    "nasa_jpl_url": "http://ssd.jpl.nasa.gov/sbdb.cgi?sstr=3627006",
    "absolute_magnitude_h": 24.6,
    "estimated_diameter": {
        "kilometers": {
            "estimated_diameter_min": 0.0319561887,
            "estimated_diameter_max": 0.0714562102
        },
        "meters": {
            "estimated_diameter_min": 31.9561886721,
            "estimated_diameter_max": 71.4562101727
        },
        "miles": {
            "estimated_diameter_min": 0.0198566489,
            "estimated_diameter_max": 0.0444008168
        },
        "feet": {
            "estimated_diameter_min": 104.8431420431,
            "estimated_diameter_max": 234.436392583
        }
    },
    "is_potentially_hazardous_asteroid": false,
    "close_approach_data": [
        {
            "close_approach_date": "2013-03-01",
            "close_approach_date_full": "2013-Mar-01 12:00",
            "epoch_date_close_approach": 1362139200000,
            "relative_velocity": {
                "kilometers_per_second": "3.9549723504",
                "kilometers_per_hour": "14237.9004614948",
                "miles_per_hour": "8846.8776506438"
            },
            "miss_distance": {
                "astronomical": "0.1203932494",
                "lunar": "46.8329740166",
                "kilometers": "18010573.672618778",
                "miles": "11191251.5349360164"
            },
            "orbiting_body": "Earth"
        }
    ],
    "orbital_data": {
        "orbit_id": "5",
        "orbit_determination_date": "2017-04-06 08:46:47",
        "first_observation_date": "2013-02-14",
        "last_observation_date": "2013-03-06",
        "data_arc_in_days": 20,
        "observations_used": 31,
        "orbit_uncertainty": "8",
        "minimum_orbit_intersection": ".115772",
        "jupiter_tisserand_invariant": "4.749",
        "epoch_osculation": "2456344.5",
        "eccentricity": ".2048488303235158",
        "semi_major_axis": "1.389360566576636",
        "inclination": "7.043246089360055",
        "ascending_node_longitude": "348.3226466597566",
        "orbital_period": "598.1648368784172",
        "perihelion_distance": "1.104751679615795",
        "perihelion_argument": "166.6823490926276",
        "aphelion_distance": "1.673969453537477",
        "perihelion_time": "2456348.632418195615",
        "mean_anomaly": "357.5129421545657",
        "mean_motion": ".6018407933817974",
        "equinox": "J2000",
        "orbit_class": {
            "orbit_class_type": "AMO",
            "orbit_class_description": "Near-Earth asteroid orbits similar to that of 1221 Amor",
            "orbit_class_range": "1.017 AU < q (perihelion) < 1.3 AU"
        }
    },
    "is_sentry_object": false
}